NOAA 15                 
1 25338U 98030A   24190.13717881  .00000300  00000+0  14224-3 0  9991
2 25338  98.5674 216.8257 0009085 262.4140  97.6009 14.26621635360426
NOAA 18                 
1 28654U 05018A   24190.16452404  .00000287  00000+0  17660-3 0  9990
2 28654  98.8743 266.9554 0014165   8.5629 351.5782 14.13247676986229
NOAA 19                 
1 33591U 09005A   24190.04808462  .00000265  00000+0  16638-3 0  9992
2 33591  99.0460 246.0670 0013084 230.4905 129.5111 14.13042357794577
METOP-B                 
1 38771U 12049A   24189.86782707  .00000206  00000+0  11384-3 0  9998
2 38771  98.6269 246.6258 0001377  83.1031 277.0303 14.21449700612480
METEOSAT-9 (MSG-2)      
1 28912U 05049B   24189.20120362  .00000118  00000+0  00000+0 0  9998
2 28912   7.7316  60.7049 0001755 358.0314 344.9946  1.00273503 67953
EWS-G1 (GOES 13)        
1 29155U 06018A   24189.57469050 -.00000293  00000+0  00000+0 0  9990
2 29155   2.6785  85.0643 0078855 255.6102 298.5354  0.99071226 66365
GOES 14                 
1 35491U 09033A   24189.59987248 -.00000070  00000+0  00000+0 0  9999
2 35491   0.3872 102.1286 0003613   6.0744 285.2822  1.00272645 55048
EWS-G2 (GOES 15)        
1 36411U 10008A   24190.13449039  .00000037  00000+0  00000+0 0  9991
2 36411   0.3576  89.0433 0002909 107.6141 199.4813  1.00271512 52523
COMS 1                  
1 36744U 10032A   24190.02966010 -.00000349  00000+0  00000+0 0  9995
2 36744   2.9936  84.1428 0000668  18.8294 322.2948  1.00272716 51545
FENGYUN 2F              
1 38049U 12002A   24189.57224597 -.00000364  00000+0  00000+0 0  9996
2 38049   5.6437  72.9350 0001699 125.5630  45.7044  1.00273469 45773
METEOSAT-10 (MSG-3)     
1 38552U 12035B   24189.83609924 -.00000012  00000+0  00000+0 0  9991
2 38552   3.0110  61.1444 0000410 285.3781 240.7468  1.00270994 44101
INSAT-3D                
1 39216U 13038B   24189.56624142 -.00000160  00000+0  00000+0 0  9996
2 39216   0.0441 274.4698 0002278 191.8771 105.6284  1.00271071 39967
HIMAWARI-8              
1 40267U 14060A   24188.64762334 -.00000280  00000+0  00000+0 0  9997
2 40267   0.0230 145.0771 0001143 357.1466 156.6882  1.00271175 35639
FENGYUN 2G              
1 40367U 14090A   24190.11368769 -.00000303  00000+0  00000+0 0  9996
2 40367   3.8432  81.3043 0003373 116.5985 228.8673  1.00261561 34928
METEOSAT-11 (MSG-4)     
1 40732U 15034A   24189.26551238  .00000057  00000+0  00000+0 0  9995
2 40732   1.4327  69.5522 0001054 162.8193 158.1622  1.00269052   105
ELEKTRO-L 2             
1 41105U 15074A   24189.40394573 -.00000123  00000+0  00000+0 0  9992
2 41105   4.8927  79.2343 0001217 149.4550 188.0665  1.00270815 31383
INSAT-3DR               
1 41752U 16054A   24189.34982653 -.00000081  00000+0  00000+0 0  9997
2 41752   0.0599  91.0972 0010550 175.2963 219.3266  1.00271542 28704
HIMAWARI-9              
1 41836U 16064A   24190.02410551 -.00000278  00000+0  00000+0 0  9999
2 41836   0.0176 143.3095 0000869 316.5734 336.0028  1.00273267 28195
GOES 16                 
1 41866U 16071A   24189.53496792 -.00000251  00000+0  00000+0 0  9996
2 41866   0.0790 250.0285 0000051 265.1795 248.1401  1.00270536 27986
FENGYUN 4A              
1 41882U 16077A   24189.56719867 -.00000203  00000+0  00000+0 0  9991
2 41882   0.5090  85.9264 0007981 344.2424 146.7706  1.00267710 27814
DMSP 5D-3 F16 (USA 172) 
1 28054U 03048A   24190.23642542  .00000116  00000+0  85039-4 0  9994
2 28054  99.0203 196.9017 0007338   2.7421  62.6868 14.14046802 69252
DMSP 5D-3 F17 (USA 191) 
1 29522U 06050A   24190.19512780  .00000134  00000+0  92448-4 0  9998
2 29522  98.7433 200.3374 0008907 281.6972  78.3201 14.14497753912169
FENGYUN 3A              
1 32958U 08026A   24189.83222498  .00000206  00000+0  11882-3 0  9995
2 32958  98.6045 136.3557 0009161  20.5633 339.5911 14.19116913834885
DMSP 5D-3 F18 (USA 210) 
1 35951U 09057A   24190.20692398  .00000352  00000+0  20749-3 0  9993
2 35951  98.8145 165.2750 0012335 105.0511 255.2028 14.14158087759333
FENGYUN 3B              
1 37214U 10059A   24190.21851948  .00000134  00000+0  93539-4 0  9996
2 37214  99.0538 218.6035 0022766  35.6997  36.9985 14.14516962707227
SUOMI NPP               
1 37849U 11061A   24189.90604023  .00000120  00000+0  77849-4 0  9999
2 37849  98.7222 127.5755 0001066 130.6251 229.5018 14.19526229657800
FENGYUN 3C              
1 39260U 13052A   24190.22075873  .00000129  00000+0  85656-4 0  9996
2 39260  98.4285 188.7124 0009792 266.3113  93.6942 14.16226959558307
METEOR-M 2              
1 40069U 14037A   24190.22504304  .00000179  00000+0  10195-3 0  9995
2 40069  98.4367 183.5232 0004702 305.4188  54.6550 14.20991466518612
CYGFM05                 
1 41884U 16078A   24189.34571394  .00008422  00000+0  30642-3 0  9990
2 41884  34.9553 173.4148 0010894  14.7079 345.3952 15.27435159419168
CYGFM04                 
1 41885U 16078B   24189.32129633  .00008511  00000+0  30132-3 0  9997
2 41885  34.9387 157.4410 0007978  37.3989 322.7281 15.28347546419255
CYGFM02                 
1 41886U 16078C   24189.34178958  .00008818  00000+0  30881-3 0  9995
2 41886  34.9497 159.5236 0010673  27.6909 332.4374 15.28675611419345
