OBJECT_NAME,OBJECT_ID,EPOCH,MEAN_MOTION,ECCENTRICITY,INCLINATION,RA_OF_ASC_NODE,ARG_OF_PERICENTER,MEAN_ANOMALY,EPHEMERIS_TYPE,CLASSIFICATION_TYPE,NORAD_CAT_ID,ELEMENT_SET_NO,REV_AT_EPOCH,BSTAR,MEAN_MOTION_DOT,MEAN_MOTION_DDOT
NOAA 15,1998-030A,2024-07-08T03:17:32.249184,14.26621635,.0009085,98.5674,216.8257,262.4140,97.6009,0,U,25338,999,36042,.14224E-3,.3E-5,0
DMSP 5D-3 F16 (USA 172),2003-048A,2024-07-08T05:40:27.156288,14.14046802,.0007338,99.0203,196.9017,2.7421,62.6868,0,U,28054,999,6925,.85039E-4,.116E-5,0
NOAA 18,2005-018A,2024-07-08T03:56:54.877056,14.13247676,.0014165,98.8743,266.9554,8.5629,351.5782,0,U,28654,999,98622,.1766E-3,.287E-5,0
METEOSAT-9 (MSG-2),2005-049B,2024-07-07T04:49:43.992768,1.00273503,.0001755,7.7316,60.7049,358.0314,344.9946,0,U,28912,999,6795,0,.118E-5,0
EWS-G1 (GOES 13),2006-018A,2024-07-07T13:47:33.259200,0.99071226,.0078855,2.6785,85.0643,255.6102,298.5354,0,U,29155,999,6636,0,-.293E-5,0
DMSP 5D-3 F17 (USA 191),2006-050A,2024-07-08T04:40:59.041920,14.14497753,.0008907,98.7433,200.3374,281.6972,78.3201,0,U,29522,999,91216,.92448E-4,.134E-5,0
FENGYUN 3A,2008-026A,2024-07-07T19:58:24.238272,14.19116913,.0009161,98.6045,136.3557,20.5633,339.5911,0,U,32958,999,83488,.11882E-3,.206E-5,0
NOAA 19,2009-005A,2024-07-08T01:09:14.511168,14.13042357,.0013084,99.0460,246.0670,230.4905,129.5111,0,U,33591,999,79457,.16638E-3,.265E-5,0
GOES 14,2009-033A,2024-07-07T14:23:48.982272,1.00272645,.0003613,0.3872,102.1286,6.0744,285.2822,0,U,35491,999,5504,0,-.7E-6,0
DMSP 5D-3 F18 (USA 210),2009-057A,2024-07-08T04:57:58.231872,14.14158087,.0012335,98.8145,165.2750,105.0511,255.2028,0,U,35951,999,75933,.20749E-3,.352E-5,0
EWS-G2 (GOES 15),2010-008A,2024-07-08T03:13:39.969696,1.00271512,.0002909,0.3576,89.0433,107.6141,199.4813,0,U,36411,999,5252,0,.37E-6,0
COMS 1,2010-032A,2024-07-08T00:42:42.632640,1.00272716,.0000668,2.9936,84.1428,18.8294,322.2948,0,U,36744,999,5154,0,-.349E-5,0
FENGYUN 3B,2010-059A,2024-07-08T05:14:40.083072,14.14516962,.0022766,99.0538,218.6035,35.6997,36.9985,0,U,37214,999,70722,.93539E-4,.134E-5,0
SUOMI NPP,2011-061A,2024-07-07T21:44:41.875872,14.19526229,.0001066,98.7222,127.5755,130.6251,229.5018,0,U,37849,999,65780,.77849E-4,.12E-5,0
FENGYUN 2F,2012-002A,2024-07-07T13:44:02.051808,1.00273469,.0001699,5.6437,72.9350,125.5630,45.7044,0,U,38049,999,4577,0,-.364E-5,0
METEOSAT-10 (MSG-3),2012-035B,2024-07-07T20:03:58.974336,1.00270994,.000041,3.0110,61.1444,285.3781,240.7468,0,U,38552,999,4410,0,-.12E-6,0
METOP-B,2012-049A,2024-07-07T20:49:40.258848,14.21449700,.0001377,98.6269,246.6258,83.1031,277.0303,0,U,38771,999,61248,.11384E-3,.206E-5,0
INSAT-3D,2013-038B,2024-07-07T13:35:23.258688,1.00271071,.0002278,0.0441,274.4698,191.8771,105.6284,0,U,39216,999,3996,0,-.16E-5,0
FENGYUN 3C,2013-052A,2024-07-08T05:17:53.554272,14.16226959,.0009792,98.4285,188.7124,266.3113,93.6942,0,U,39260,999,55830,.85656E-4,.129E-5,0
METEOR-M 2,2014-037A,2024-07-08T05:24:03.718656,14.20991466,.0004702,98.4367,183.5232,305.4188,54.6550,0,U,40069,999,51861,.10195E-3,.179E-5,0
HIMAWARI-8,2014-060A,2024-07-06T15:32:34.656576,1.00271175,.0001143,0.0230,145.0771,357.1466,156.6882,0,U,40267,999,3563,0,-.28E-5,0
FENGYUN 2G,2014-090A,2024-07-08T02:43:42.616416,1.00261561,.0003373,3.8432,81.3043,116.5985,228.8673,0,U,40367,999,3492,0,-.303E-5,0
METEOSAT-11 (MSG-4),2015-034A,2024-07-07T06:22:20.269632,1.00269052,.0001054,1.4327,69.5522,162.8193,158.1622,0,U,40732,999,10,0,.57E-6,0
ELEKTRO-L 2,2015-074A,2024-07-07T09:41:40.911072,1.00270815,.0001217,4.8927,79.2343,149.4550,188.0665,0,U,41105,999,3138,0,-.123E-5,0
INSAT-3DR,2016-054A,2024-07-07T08:23:45.012192,1.00271542,.001055,0.0599,91.0972,175.2963,219.3266,0,U,41752,999,2870,0,-.81E-6,0
HIMAWARI-9,2016-064A,2024-07-08T00:34:42.716064,1.00273267,.0000869,0.0176,143.3095,316.5734,336.0028,0,U,41836,999,2819,0,-.278E-5,0
GOES 16,2016-071A,2024-07-07T12:50:21.228288,1.00270536,.0000051,0.0790,250.0285,265.1795,248.1401,0,U,41866,999,2798,0,-.251E-5,0
FENGYUN 4A,2016-077A,2024-07-07T13:36:45.965088,1.00267710,.0007981,0.5090,85.9264,344.2424,146.7706,0,U,41882,999,2781,0,-.203E-5,0
CYGFM05,2016-078A,2024-07-07T08:17:49.684416,15.27435159,.0010894,34.9553,173.4148,14.7079,345.3952,0,U,41884,999,41916,.30642E-3,.8422E-4,0
CYGFM04,2016-078B,2024-07-07T07:42:40.002912,15.28347546,.0007978,34.9387,157.4410,37.3989,322.7281,0,U,41885,999,41925,.30132E-3,.8511E-4,0
CYGFM02,2016-078C,2024-07-07T08:12:10.619712,15.28675611,.0010673,34.9497,159.5236,27.6909,332.4374,0,U,41886,999,41934,.30881E-3,.8818E-4,0
